{
  "type": "FeatureCollection",
  "features": [
    {
      "type": "Feature",
      "properties": {
        "norad_id": 35080,
        "name": "IRIDIUM 33 DEB",
        "group": "iridium-33-debris",
        "lat": 80.4838524823771,
        "lon": 68.54793501050902,
        "alt_km": 569.6804485569355,
        "timestamp": "2025-12-27T15:27:11.579607+00:00",
        "meta_object_name": "IRIDIUM 33 DEB",
        "meta_object_id": "1997-051PF",
        "meta_epoch": "2025-12-26T21:19:55.703424",
        "meta_mean_motion": 14.87648712,
        "meta_eccentricity": 0.0057997,
        "meta_inclination": 86.2085,
        "meta_ra_of_asc_node": 45.606,
        "meta_arg_of_pericenter": 130.4806,
        "meta_mean_anomaly": 230.1496,
        "meta_ephemeris_type": 0,
        "meta_classification_type": "U",
        "meta_norad_cat_id": 35080,
        "meta_element_set_no": 999,
        "meta_rev_at_epoch": 69898,
        "meta_bstar": 0.0073607,
        "meta_mean_motion_dot": 0.00069659,
        "meta_mean_motion_ddot": 0,
        "tle_line1": "1 35080U 97051PF  25360.88883916  .00069659  00000+0  73607-2 0  9994",
        "tle_line2": "2 35080  86.2085  45.6060 0057997 130.4806 230.1496 14.87648712698980"
      },
      "geometry": {
        "type": "Point",
        "coordinates": [
          68.54793501050902,
          80.4838524823771
        ]
      }
    },
    {
      "type": "Feature",
      "properties": {
        "norad_id": 35297,
        "name": "IRIDIUM 33 DEB",
        "group": "iridium-33-debris",
        "lat": 79.80173707403318,
        "lon": -144.17796487247713,
        "alt_km": 721.1575126696653,
        "timestamp": "2025-12-27T15:27:11.579617+00:00",
        "meta_object_name": "IRIDIUM 33 DEB",
        "meta_object_id": "1997-051PM",
        "meta_epoch": "2025-12-26T10:44:46.667040",
        "meta_mean_motion": 14.4521519,
        "meta_eccentricity": 0.0018076,
        "meta_inclination": 86.3846,
        "meta_ra_of_asc_node": 56.909,
        "meta_arg_of_pericenter": 100.7298,
        "meta_mean_anomaly": 259.594,
        "meta_ephemeris_type": 0,
        "meta_classification_type": "U",
        "meta_norad_cat_id": 35297,
        "meta_element_set_no": 999,
        "meta_rev_at_epoch": 70624,
        "meta_bstar": 0.00060666,
        "meta_mean_motion_dot": 2.149e-05,
        "meta_mean_motion_ddot": 0,
        "tle_line1": "1 35297U 97051PM  25360.44776235  .00002149  00000+0  60666-3 0  9994",
        "tle_line2": "2 35297  86.3846  56.9090 0018076 100.7298 259.5940 14.45215190706246"
      },
      "geometry": {
        "type": "Point",
        "coordinates": [
          -144.17796487247713,
          79.80173707403318
        ]
      }
    },
    {
      "type": "Feature",
      "properties": {
        "norad_id": 35299,
        "name": "IRIDIUM 33 DEB",
        "group": "iridium-33-debris",
        "lat": 16.73531265276095,
        "lon": -154.42185221275614,
        "alt_km": 768.9470621374148,
        "timestamp": "2025-12-27T15:27:11.579627+00:00",
        "meta_object_name": "IRIDIUM 33 DEB",
        "meta_object_id": "1997-051PP",
        "meta_epoch": "2025-12-27T01:30:21.709728",
        "meta_mean_motion": 14.40934949,
        "meta_eccentricity": 0.0058407,
        "meta_inclination": 86.2878,
        "meta_ra_of_asc_node": 26.9497,
        "meta_arg_of_pericenter": 56.6826,
        "meta_mean_anomaly": 333.1612,
        "meta_ephemeris_type": 0,
        "meta_classification_type": "U",
        "meta_norad_cat_id": 35299,
        "meta_element_set_no": 999,
        "meta_rev_at_epoch": 86537,
        "meta_bstar": 0.00098170121,
        "meta_mean_motion_dot": 3.234e-05,
        "meta_mean_motion_ddot": 0,
        "tle_line1": "1 35299U 97051PP  25361.06275127  .00003234  00000+0  98170-3 0  9996",
        "tle_line2": "2 35299  86.2878  26.9497 0058407  56.6826 333.1612 14.40934949865378"
      },
      "geometry": {
        "type": "Point",
        "coordinates": [
          -154.42185221275614,
          16.73531265276095
        ]
      }
    },
    {
      "type": "Feature",
      "properties": {
        "norad_id": 35480,
        "name": "IRIDIUM 33 DEB",
        "group": "iridium-33-debris",
        "lat": 18.892850389643904,
        "lon": 19.698651035107584,
        "alt_km": 718.2060552492858,
        "timestamp": "2025-12-27T15:27:11.579637+00:00",
        "meta_object_name": "IRIDIUM 33 DEB",
        "meta_object_id": "1997-051QA",
        "meta_epoch": "2025-12-26T19:29:20.805504",
        "meta_mean_motion": 14.49821486,
        "meta_eccentricity": 0.00157721,
        "meta_inclination": 86.3559,
        "meta_ra_of_asc_node": 18.8095,
        "meta_arg_of_pericenter": 63.8067,
        "meta_mean_anomaly": 296.4757,
        "meta_ephemeris_type": 0,
        "meta_classification_type": "U",
        "meta_norad_cat_id": 35480,
        "meta_element_set_no": 999,
        "meta_rev_at_epoch": 87235,
        "meta_bstar": 0.00059301191,
        "meta_mean_motion_dot": 2.31e-05,
        "meta_mean_motion_ddot": 0,
        "tle_line1": "1 35480U 97051QA  25360.81204636  .00002310  00000+0  59301-3 0  9994",
        "tle_line2": "2 35480  86.3559  18.8095 0015772  63.8067 296.4757 14.49821486872353"
      },
      "geometry": {
        "type": "Point",
        "coordinates": [
          19.698651035107584,
          18.892850389643904
        ]
      }
    },
    {
      "type": "Feature",
      "properties": {
        "norad_id": 35484,
        "name": "IRIDIUM 33 DEB",
        "group": "iridium-33-debris",
        "lat": -54.65993597271761,
        "lon": -19.380588530427072,
        "alt_km": 586.3462737522414,
        "timestamp": "2025-12-27T15:27:11.579648+00:00",
        "meta_object_name": "IRIDIUM 33 DEB",
        "meta_object_id": "1997-051QE",
        "meta_epoch": "2025-12-23T05:59:10.354560",
        "meta_mean_motion": 14.99264182,
        "meta_eccentricity": 0.00245796,
        "meta_inclination": 86.3609,
        "meta_ra_of_asc_node": 347.8264,
        "meta_arg_of_pericenter": 91.5392,
        "meta_mean_anomaly": 268.8655,
        "meta_ephemeris_type": 0,
        "meta_classification_type": "U",
        "meta_norad_cat_id": 35484,
        "meta_element_set_no": 999,
        "meta_rev_at_epoch": 62173,
        "meta_bstar": 0.0029536278,
        "meta_mean_motion_dot": 0.00036413,
        "meta_mean_motion_ddot": 0,
        "tle_line1": "1 35484U 97051QE  25357.24942540  .00036413  00000+0  29536-2 0  9991",
        "tle_line2": "2 35484  86.3609 347.8264 0024579  91.5392 268.8655 14.99264182621733"
      },
      "geometry": {
        "type": "Point",
        "coordinates": [
          -19.380588530427072,
          -54.65993597271761
        ]
      }
    },
    {
      "type": "Feature",
      "properties": {
        "norad_id": 35488,
        "name": "IRIDIUM 33 DEB",
        "group": "iridium-33-debris",
        "lat": -74.29118911970276,
        "lon": -79.20669459513182,
        "alt_km": 618.5258805359717,
        "timestamp": "2025-12-27T15:27:11.579658+00:00",
        "meta_object_name": "IRIDIUM 33 DEB",
        "meta_object_id": "1997-051QJ",
        "meta_epoch": "2025-12-27T02:50:12.410016",
        "meta_mean_motion": 14.83437046,
        "meta_eccentricity": 0.00275037,
        "meta_inclination": 86.3244,
        "meta_ra_of_asc_node": 294.248,
        "meta_arg_of_pericenter": 354.9458,
        "meta_mean_anomaly": 5.1482,
        "meta_ephemeris_type": 0,
        "meta_classification_type": "U",
        "meta_norad_cat_id": 35488,
        "meta_element_set_no": 999,
        "meta_rev_at_epoch": 88479,
        "meta_bstar": 0.0020499633,
        "meta_mean_motion_dot": 0.00016991,
        "meta_mean_motion_ddot": 0,
        "tle_line1": "1 35488U 97051QJ  25361.11819919  .00016991  00000+0  20500-2 0  9990",
        "tle_line2": "2 35488  86.3244 294.2480 0027503 354.9458   5.1482 14.83437046884797"
      },
      "geometry": {
        "type": "Point",
        "coordinates": [
          -79.20669459513182,
          -74.29118911970276
        ]
      }
    },
    {
      "type": "Feature",
      "properties": {
        "norad_id": 35616,
        "name": "IRIDIUM 33 DEB",
        "group": "iridium-33-debris",
        "lat": 17.141728397854838,
        "lon": -19.91252276315086,
        "alt_km": 624.0088547382429,
        "timestamp": "2025-12-27T15:27:11.579669+00:00",
        "meta_object_name": "IRIDIUM 33 DEB",
        "meta_object_id": "1997-051QN",
        "meta_epoch": "2025-12-21T16:46:45.287328",
        "meta_mean_motion": 14.82015021,
        "meta_eccentricity": 0.00114093,
        "meta_inclination": 86.3545,
        "meta_ra_of_asc_node": 341.6744,
        "meta_arg_of_pericenter": 134.0095,
        "meta_mean_anomaly": 226.2069,
        "meta_ephemeris_type": 0,
        "meta_classification_type": "U",
        "meta_norad_cat_id": 35616,
        "meta_element_set_no": 999,
        "meta_rev_at_epoch": 87707,
        "meta_bstar": 0.0013754653,
        "meta_mean_motion_dot": 0.00010957,
        "meta_mean_motion_ddot": 0,
        "tle_line1": "1 35616U 97051QN  25355.69913527  .00010957  00000+0  13755-2 0  9999",
        "tle_line2": "2 35616  86.3545 341.6744 0011409 134.0095 226.2069 14.82015021877070"
      },
      "geometry": {
        "type": "Point",
        "coordinates": [
          -19.91252276315086,
          17.141728397854838
        ]
      }
    }
  ]
}